{
  "Europe": [
    {"name_ja":"ã‚¤ã‚¿ãƒªã‚¢","name_en":"Italy","iso2":"IT","hub_city":"Rome","iata":"FCO","flag":"ğŸ‡®ğŸ‡¹"},
    {"name_ja":"ãƒ•ãƒ©ãƒ³ã‚¹","name_en":"France","iso2":"FR","hub_city":"Paris","iata":"CDG","flag":"ğŸ‡«ğŸ‡·"},
    {"name_ja":"ã‚¹ãƒšã‚¤ãƒ³","name_en":"Spain","iso2":"ES","hub_city":"Madrid","iata":"MAD","flag":"ğŸ‡ªğŸ‡¸"}
  ],
  "Asia": [
    {"name_ja":"ã‚¿ã‚¤","name_en":"Thailand","iso2":"TH","hub_city":"Bangkok","iata":"BKK","flag":"ğŸ‡¹ğŸ‡­"},
    {"name_ja":"éŸ“å›½","name_en":"Korea, Republic of","iso2":"KR","hub_city":"Seoul","iata":"ICN","flag":"ğŸ‡°ğŸ‡·"},
    {"name_ja":"ãƒ™ãƒˆãƒŠãƒ ","name_en":"Vietnam","iso2":"VN","hub_city":"Hanoi","iata":"HAN","flag":"ğŸ‡»ğŸ‡³"}
  ],
  "North America": [
    {"name_ja":"ã‚¢ãƒ¡ãƒªã‚«åˆè¡†å›½","name_en":"United States","iso2":"US","hub_city":"Los Angeles","iata":"LAX","flag":"ğŸ‡ºğŸ‡¸"},
    {"name_ja":"ã‚«ãƒŠãƒ€","name_en":"Canada","iso2":"CA","hub_city":"Vancouver","iata":"YVR","flag":"ğŸ‡¨ğŸ‡¦"}
  ],
  "Oceania": [
    {"name_ja":"ã‚ªãƒ¼ã‚¹ãƒˆãƒ©ãƒªã‚¢","name_en":"Australia","iso2":"AU","hub_city":"Sydney","iata":"SYD","flag":"ğŸ‡¦ğŸ‡º"},
    {"name_ja":"ãƒ‹ãƒ¥ãƒ¼ã‚¸ãƒ¼ãƒ©ãƒ³ãƒ‰","name_en":"New Zealand","iso2":"NZ","hub_city":"Auckland","iata":"AKL","flag":"ğŸ‡³ğŸ‡¿"}
  ]
}
